start=new Date('2023-06-20T00:00:00.000Z').valueOf();
sats=[{"BSTAR":"-0.00015346000000","EPHEMERIS_TYPE":"0","GP_ID":"234315105","OBJECT_NAME":"STARLINK-1984","TIME_SYSTEM":"UTC","ELEMENT_SET_NO":"999","REV_AT_EPOCH":"13124","INCLINATION":"53.0533","EPOCH":"2023-06-19T15:01:27.776352","FILE":"3937509","MEAN_MOTION_DOT":"-0.00002566","OBJECT_ID":"2021-009AK","ARG_OF_PERICENTER":"95.6998","DECAY_DATE":null,"MEAN_MOTION_DDOT":"0.0000000000000","PERIAPSIS":"546.398","MEAN_ELEMENT_THEORY":"SGP4","COUNTRY_CODE":"US","PERIOD":"95.593","CLASSIFICATION_TYPE":"U","RA_OF_ASC_NODE":"144.1405","MEAN_ANOMALY":"264.4131","OBJECT_TYPE":"PAYLOAD","NORAD_CAT_ID":"47581","RCS_SIZE":"LARGE","REF_FRAME":"TEME","SEMIMAJOR_AXIS":"6925.384","MEAN_MOTION":"15.06388438","SITE":"AFETR","LAUNCH_DATE":"2021-02-04","TLE_LINE1":"1 47581U 21009AK  23170.62601593 -.00002566  00000-0 -15346-3 0  9995","ECCENTRICITY":"0.00012290","CENTER_NAME":"EARTH","TLE_LINE2":"2 47581  53.0533 144.1405 0001229  95.6998 264.4131 15.06388438131243","APOAPSIS":"548.100"},{"SITE":"AFETR","TLE_LINE1":"1 47582U 21009AL  23170.67946437  .00000381  00000-0  44469-4 0  9990","LAUNCH_DATE":"2021-02-04","ECCENTRICITY":"0.00010620","CENTER_NAME":"EARTH","TLE_LINE2":"2 47582  53.0534 163.9023 0001062  89.4749 270.6361 15.06397518130972","APOAPSIS":"547.957","MEAN_ANOMALY":"270.6361","OBJECT_TYPE":"PAYLOAD","NORAD_CAT_ID":"47582","RCS_SIZE":"LARGE","REF_FRAME":"TEME","SEMIMAJOR_AXIS":"6925.356","MEAN_MOTION":"15.06397518","DECAY_DATE":null,"ARG_OF_PERICENTER":"89.4749","PERIAPSIS":"546.486","MEAN_MOTION_DDOT":"0.0000000000000","MEAN_ELEMENT_THEORY":"SGP4","COUNTRY_CODE":"US","RA_OF_ASC_NODE":"163.9023","CLASSIFICATION_TYPE":"U","PERIOD":"95.592","BSTAR":"0.00004446900000","EPHEMERIS_TYPE":"0","OBJECT_NAME":"STARLINK-1986","TIME_SYSTEM":"UTC","GP_ID":"234315858","INCLINATION":"53.0534","ELEMENT_SET_NO":"999","REV_AT_EPOCH":"13097","EPOCH":"2023-06-19T16:18:25.721568","FILE":"3937509","MEAN_MOTION_DOT":"0.00000381","OBJECT_ID":"2021-009AL"},{"FILE":"3937338","EPOCH":"2023-06-19T09:24:25.518528","REV_AT_EPOCH":"13093","ELEMENT_SET_NO":"999","INCLINATION":"53.0532","OBJECT_ID":"2021-009AM","MEAN_MOTION_DOT":"-0.00000089","BSTAR":"0.00001289000000","GP_ID":"234284180","TIME_SYSTEM":"UTC","OBJECT_NAME":"STARLINK-1987","EPHEMERIS_TYPE":"0","MEAN_ELEMENT_THEORY":"SGP4","COUNTRY_CODE":"US","PERIOD":"95.592","RA_OF_ASC_NODE":"165.1914","CLASSIFICATION_TYPE":"U","MEAN_MOTION_DDOT":"0.0000000000000","PERIAPSIS":"546.388","ARG_OF_PERICENTER":"87.8301","DECAY_DATE":null,"REF_FRAME":"TEME","SEMIMAJOR_AXIS":"6925.356","MEAN_MOTION":"15.06397515","OBJECT_TYPE":"PAYLOAD","MEAN_ANOMALY":"272.2826","NORAD_CAT_ID":"47583","RCS_SIZE":"LARGE","APOAPSIS":"548.054","TLE_LINE2":"2 47583  53.0532 165.1914 0001203  87.8301 272.2826 15.06397515130934","SITE":"AFETR","CENTER_NAME":"EARTH","ECCENTRICITY":"0.00012030","TLE_LINE1":"1 47583U 21009AM  23170.39196202 -.00000089  00000-0  12890-4 0  9996","LAUNCH_DATE":"2021-02-04"},{"PERIOD":"95.592","CLASSIFICATION_TYPE":"U","RA_OF_ASC_NODE":"163.8872","COUNTRY_CODE":"US","MEAN_ELEMENT_THEORY":"SGP4","MEAN_MOTION_DDOT":"0.0000000000000","PERIAPSIS":"546.511","ARG_OF_PERICENTER":"81.5211","DECAY_DATE":null,"OBJECT_ID":"2021-009AP","MEAN_MOTION_DOT":"0.00000715","EPOCH":"2023-06-19T16:23:44.608416","FILE":"3937509","REV_AT_EPOCH":"13097","ELEMENT_SET_NO":"999","INCLINATION":"53.0537","GP_ID":"234314857","TIME_SYSTEM":"UTC","OBJECT_NAME":"STARLINK-1989","EPHEMERIS_TYPE":"0","BSTAR":"0.00006689400000","APOAPSIS":"547.927","TLE_LINE2":"2 47585  53.0537 163.8872 0001022  81.5211 278.5894 15.06398153130976","ECCENTRICITY":"0.00010220","CENTER_NAME":"EARTH","TLE_LINE1":"1 47585U 21009AP  23170.68315519  .00000715  00000-0  66894-4 0  9992","LAUNCH_DATE":"2021-02-04","SITE":"AFETR","MEAN_MOTION":"15.06398153","REF_FRAME":"TEME","SEMIMAJOR_AXIS":"6925.354","RCS_SIZE":"LARGE","NORAD_CAT_ID":"47585","MEAN_ANOMALY":"278.5894","OBJECT_TYPE":"PAYLOAD"},{"OBJECT_NAME":"STARLINK-1990","TIME_SYSTEM":"UTC","GP_ID":"234314605","EPHEMERIS_TYPE":"0","BSTAR":"-0.00001981500000","OBJECT_ID":"2021-009AQ","MEAN_MOTION_DOT":"-0.00000576","FILE":"3937509","EPOCH":"2023-06-19T17:35:23.246880","INCLINATION":"53.0521","REV_AT_EPOCH":"13070","ELEMENT_SET_NO":"999","PERIAPSIS":"546.585","MEAN_MOTION_DDOT":"0.0000000000000","DECAY_DATE":null,"ARG_OF_PERICENTER":"74.9464","CLASSIFICATION_TYPE":"U","RA_OF_ASC_NODE":"183.6601","PERIOD":"95.592","MEAN_ELEMENT_THEORY":"SGP4","COUNTRY_CODE":"US","NORAD_CAT_ID":"47586","RCS_SIZE":"LARGE","OBJECT_TYPE":"PAYLOAD","MEAN_ANOMALY":"285.1626","MEAN_MOTION":"15.06397465","REF_FRAME":"TEME","SEMIMAJOR_AXIS":"6925.356","ECCENTRICITY":"0.00009190","CENTER_NAME":"EARTH","LAUNCH_DATE":"2021-02-04","TLE_LINE1":"1 47586U 21009AQ  23170.73290795 -.00000576  00000-0 -19815-4 0  9995","SITE":"AFETR","APOAPSIS":"547.858","TLE_LINE2":"2 47586  53.0521 183.6601 0000919  74.9464 285.1626 15.06397465130703"},{"PERIOD":"95.592","RA_OF_ASC_NODE":"153.9817","CLASSIFICATION_TYPE":"U","COUNTRY_CODE":"US","MEAN_ELEMENT_THEORY":"SGP4","MEAN_MOTION_DDOT":"0.0000000000000","PERIAPSIS":"546.499","ARG_OF_PERICENTER":"79.4328","DECAY_DATE":null,"OBJECT_ID":"2021-009AR","MEAN_MOTION_DOT":"-0.00000655","EPOCH":"2023-06-19T15:53:12.945696","FILE":"3937509","REV_AT_EPOCH":"13111","ELEMENT_SET_NO":"999","INCLINATION":"53.0540","GP_ID":"234315358","OBJECT_NAME":"STARLINK-1991","TIME_SYSTEM":"UTC","EPHEMERIS_TYPE":"0","BSTAR":"-0.00002506200000","APOAPSIS":"547.952","TLE_LINE2":"2 47587  53.0540 153.9817 0001049  79.4328 280.6779 15.06396003131110","ECCENTRICITY":"0.00010490","CENTER_NAME":"EARTH","LAUNCH_DATE":"2021-02-04","TLE_LINE1":"1 47587U 21009AR  23170.66195539 -.00000655  00000-0 -25062-4 0  9997","SITE":"AFETR","MEAN_MOTION":"15.06396003","REF_FRAME":"TEME","SEMIMAJOR_AXIS":"6925.361","NORAD_CAT_ID":"47587","RCS_SIZE":"LARGE","MEAN_ANOMALY":"280.6779","OBJECT_TYPE":"PAYLOAD"},{"BSTAR":"0.00000064050000","EPHEMERIS_TYPE":"0","OBJECT_NAME":"STARLINK-1993","TIME_SYSTEM":"UTC","GP_ID":"234315608","INCLINATION":"53.0526","REV_AT_EPOCH":"13098","ELEMENT_SET_NO":"999","EPOCH":"2023-06-19T17:16:48.758592","FILE":"3937509","MEAN_MOTION_DOT":"-0.00000272","OBJECT_ID":"2021-009AS","DECAY_DATE":null,"ARG_OF_PERICENTER":"92.2188","PERIAPSIS":"546.570","MEAN_MOTION_DDOT":"0.0000000000000","MEAN_ELEMENT_THEORY":"SGP4","COUNTRY_CODE":"US","RA_OF_ASC_NODE":"163.7214","CLASSIFICATION_TYPE":"U","PERIOD":"95.592","MEAN_ANOMALY":"267.8909","OBJECT_TYPE":"PAYLOAD","RCS_SIZE":"LARGE","NORAD_CAT_ID":"47588","SEMIMAJOR_AXIS":"6925.357","REF_FRAME":"TEME","MEAN_MOTION":"15.06397180","SITE":"AFETR","TLE_LINE1":"1 47588U 21009AS  23170.72000878 -.00000272  00000-0  64050-6 0  9992","LAUNCH_DATE":"2021-02-04","CENTER_NAME":"EARTH","ECCENTRICITY":"0.00009420","TLE_LINE2":"2 47588  53.0526 163.7214 0000942  92.2188 267.8909 15.06397180130986","APOAPSIS":"547.875"},{"MEAN_MOTION":"15.06398149","REF_FRAME":"TEME","SEMIMAJOR_AXIS":"6925.354","NORAD_CAT_ID":"47589","RCS_SIZE":"LARGE","MEAN_ANOMALY":"276.6834","OBJECT_TYPE":"PAYLOAD","APOAPSIS":"547.998","TLE_LINE2":"2 47589  53.0534 163.9335 0001125  83.4283 276.6834 15.06398149130974","ECCENTRICITY":"0.00011250","CENTER_NAME":"EARTH","LAUNCH_DATE":"2021-02-04","TLE_LINE1":"1 47589U 21009AT  23170.67209152 -.00000210  00000-0  48026-5 0  9999","SITE":"AFETR","OBJECT_ID":"2021-009AT","MEAN_MOTION_DOT":"-0.00000210","EPOCH":"2023-06-19T16:07:48.707328","FILE":"3937509","REV_AT_EPOCH":"13097","ELEMENT_SET_NO":"999","INCLINATION":"53.0534","GP_ID":"234314357","OBJECT_NAME":"STARLINK-1994","TIME_SYSTEM":"UTC","EPHEMERIS_TYPE":"0","BSTAR":"0.00000480260000","PERIOD":"95.592","CLASSIFICATION_TYPE":"U","RA_OF_ASC_NODE":"163.9335","MEAN_ELEMENT_THEORY":"SGP4","COUNTRY_CODE":"US","MEAN_MOTION_DDOT":"0.0000000000000","PERIAPSIS":"546.440","ARG_OF_PERICENTER":"83.4283","DECAY_DATE":null},{"FILE":"3937509","EPOCH":"2023-06-19T17:30:04.695264","INCLINATION":"53.0544","REV_AT_EPOCH":"13070","ELEMENT_SET_NO":"999","OBJECT_ID":"2021-009AU","MEAN_MOTION_DOT":"-0.00001375","BSTAR":"-0.00007344200000","OBJECT_NAME":"STARLINK-1995","TIME_SYSTEM":"UTC","GP_ID":"234315106","EPHEMERIS_TYPE":"0","MEAN_ELEMENT_THEORY":"SGP4","COUNTRY_CODE":"US","CLASSIFICATION_TYPE":"U","RA_OF_ASC_NODE":"183.6779","PERIOD":"95.592","PERIAPSIS":"546.405","MEAN_MOTION_DDOT":"0.0000000000000","DECAY_DATE":null,"ARG_OF_PERICENTER":"89.6678","SEMIMAJOR_AXIS":"6925.358","REF_FRAME":"TEME","MEAN_MOTION":"15.06396854","MEAN_ANOMALY":"270.4446","OBJECT_TYPE":"PAYLOAD","NORAD_CAT_ID":"47590","RCS_SIZE":"LARGE","APOAPSIS":"548.041","TLE_LINE2":"2 47590  53.0544 183.6779 0001181  89.6678 270.4446 15.06396854130709","SITE":"AFETR","ECCENTRICITY":"0.00011810","CENTER_NAME":"EARTH","TLE_LINE1":"1 47590U 21009AU  23170.72922101 -.00001375  00000-0 -73442-4 0  9996","LAUNCH_DATE":"2021-02-04"},{"MEAN_ELEMENT_THEORY":"SGP4","COUNTRY_CODE":"US","RA_OF_ASC_NODE":"165.7399","CLASSIFICATION_TYPE":"U","PERIOD":"95.592","DECAY_DATE":null,"ARG_OF_PERICENTER":"82.2865","PERIAPSIS":"546.664","MEAN_MOTION_DDOT":"0.0000000000000","INCLINATION":"53.0535","REV_AT_EPOCH":"13091","ELEMENT_SET_NO":"999","FILE":"3937509","EPOCH":"2023-06-19T06:29:15.326592","MEAN_MOTION_DOT":"0.00000094","OBJECT_ID":"2021-009AV","BSTAR":"0.00002521400000","EPHEMERIS_TYPE":"0","OBJECT_NAME":"STARLINK-1996","TIME_SYSTEM":"UTC","GP_ID":"234315859","TLE_LINE2":"2 47591  53.0535 165.7399 0000786  82.2865 277.8213 15.06401799130917","APOAPSIS":"547.752","SITE":"AFETR","LAUNCH_DATE":"2021-02-04","TLE_LINE1":"1 47591U 21009AV  23170.27031628  .00000094  00000-0  25214-4 0  9991","ECCENTRICITY":"0.00007860","CENTER_NAME":"EARTH","REF_FRAME":"TEME","SEMIMAJOR_AXIS":"6925.343","MEAN_MOTION":"15.06401799","OBJECT_TYPE":"PAYLOAD","MEAN_ANOMALY":"277.8213","RCS_SIZE":"LARGE","NORAD_CAT_ID":"47591"}];
